YARILO 2                
1 46491U 20068F   24260.18328682  .00081270  00000+0  20573-2 0  9998
2 46491  97.8125 232.0899 0007039  19.4703 340.6809 15.39420224218760
LACUNASAT-3             
1 46492U 20068G   24260.45566810  .00084643  00000+0  19822-2 0  9998
2 46492  97.8133 233.6182 0005661  12.6393 347.4994 15.41780038218878
DEKART                  
1 46493U 20068H   24260.19966929  .00017752  00000+0  88209-3 0  9998
2 46493  97.8243 223.5486 0014138  14.1342 346.0283 15.17638075218182
NORBI                   
1 46494U 20068J   24259.90241923  .00025510  00000+0  11851-2 0  9995
2 46494  97.8245 224.4028 0013085  14.5768 345.5841 15.19909043218219
SALSAT                  
1 46495U 20068K   24260.14851596  .00016982  00000+0  90266-3 0  9998
2 46495  97.8251 221.8893 0013501  14.0756 346.0849 15.15282102218077
ICEYE-X6                
1 46497U 20068M   24259.43268694  .00010919  00000+0  86287-3 0  9993
2 46497  97.9710 217.6700 0007190  80.9452 279.2584 15.00829972217205
LEMUR-2-SLICERS         
1 46500U 20068Q   24260.47069420  .00366655  00000+0  16295-2 0  9992
2 46500  97.7514 238.9994 0006398 118.2483 241.9432 15.83377977219270
LEMUR-2-SUSURRUS        
1 46502U 20068S   24260.41364766  .00473758  00000+0  21405-2 0  9991
2 46502  97.7588 239.1150 0009122  89.1504 271.0809 15.82736844219260
NETSAT-4                
1 46504U 20068U   24260.13125446  .00024383  00000+0  11941-2 0  9992
2 46504  97.8130 219.9357 0011632  60.9918 299.2479 15.18103899217952
NETSAT-3                
1 46505U 20068V   24260.41530913  .00020426  00000+0  10175-2 0  9995
2 46505  97.8114 219.6196 0011350  67.8249 292.4187 15.17549752217988
NETSAT-1                
1 46506U 20068W   24260.31385837  .00016269  00000+0  86470-3 0  9990
2 46506  97.8131 218.7464 0010312  76.0703 284.1674 15.15327409217913
NETSAT-2                
1 46507U 20068X   24260.34892518  .00020472  00000+0  10039-2 0  9991
2 46507  97.8120 219.7654 0009760  80.8772 279.3564 15.18113039217939
TIANQI-6                
1 46810U 20076D   24260.50126954  .00009482  00000+0  76956-3 0  9998
2 46810  35.0025 347.3973 0012298 325.0912  34.8988 14.98891984212495
KSM1-C                  
1 46906U 20081B   24259.74378673  .00017650  00000+0  10311-2 0  9999
2 46906  36.8956   4.1587 0003286 298.2330  61.8082 15.11224054211841
KSM1-D                  
1 46907U 20081C   24260.54350981  .00013493  00000+0  80045-3 0  9995
2 46907  36.8997   0.7779 0005367 319.9983  40.0365 15.10737865212021
KSM1-A                  
1 46912U 20081H   24260.47983597  .00013970  00000+0  82135-3 0  9990
2 46912  36.8987 359.2619 0004385  32.6799 327.4216 15.11057528212034
R2                      
1 46913U 20081J   24259.66334333  .00015725  00000+0  92264-3 0  9992
2 46913  36.9028   2.4593 0009346 331.2385  28.7844 15.11069270214690
KSM1-B                  
1 46914U 20081K   24260.49033978  .00012749  00000+0  75784-3 0  9998
2 46914  36.9036   0.6700 0007850 342.7123  17.3353 15.10671100211297
GONETS-M 20             
1 47227U 20091A   24260.49969279  .00000057  00000+0  33876-3 0  9994
2 47227  82.5088 339.4280 0021960 133.8595 226.4304 12.42880605171866
GONETS-M 21             
1 47228U 20091B   24260.55238790  .00000046  00000+0  26018-3 0  9997
2 47228  82.5012 338.4977 0015897 146.1604 214.0494 12.42894017171861
GONETS-M 22             
1 47229U 20091C   24260.52682704  .00000057  00000+0  33889-3 0  9999
2 47229  82.5069 339.1145 0022989 127.8870 232.4293 12.42889034171853
UVSQ-SAT                
1 47438U 21006AB  24260.42294535  .00229677  00000+0  18943-2 0  9992
2 47438  97.3108 323.1632 0006616 225.3167 134.7556 15.69621056202928
SOMP2B                  
1 47445U 21006AJ  24260.44300756  .00160314  00000+0  18520-2 0  9998
2 47445  97.3066 320.7790 0006183 232.4917 127.5779 15.61343964202803
CUBEL                   
1 47448U 21006AM  24260.45087047  .00010997  00000+0  46165-3 0  9995
2 47448  97.3337 309.8377 0008192 300.3708  59.6719 15.23601557201903
IDEASSAT                
1 47458U 21006AX  24259.93449342  .00130582  00000+0  18912-2 0  9998
2 47458  97.3196 320.4019 0005793 235.4960 124.5748 15.55408616202621
ASTROCAST-0103          
1 47487U 21006CC  24260.11537469  .00034150  00000+0  11326-2 0  9996
2 47487  97.3451 312.8215 0004534 317.9928  42.0965 15.31170566202047
ASTROCAST-0102          
1 47488U 21006CD  24260.11524742  .00074406  00000+0  19158-2 0  9996
2 47488  97.3323 312.9887 0007352 245.3789 114.6691 15.38928445202127
ASTROCAST-0104          
1 47519U 21006DK  24260.11111989  .00029734  00000+0  10023-2 0  9992
2 47519  97.3388 312.0897 0004703 286.1898  73.8825 15.30673297202035
ARKTIKA-M 1             
1 47719U 21016A   24257.98172683  .00000071  00000+0  00000+0 0  9998
2 47719  63.1322 141.4982 6973344 268.5561  17.7619  2.00618702 25920
STARLINK-2342           
1 47883U 21021Z   24260.49904890  .00039267  00000+0  26395-2 0  9996
2 47883  53.0533 177.1397 0001411  90.6382 269.4769 15.06412351194376
GRUS-1B                 
1 47934U 21022C   24260.52066199  .00005477  00000+0  47917-3 0  9999
2 47934  97.6136 151.1982 0015797 311.0459  48.9397 14.97041766190274
2021-022F               
1 47937U 21022F   24260.50849416  .00013624  00000+0  66659-3 0  9998
2 47937  97.4483 154.7437 0013232 175.2509 184.8853 15.18240526192292
CANYVAL-C (PUMBAA)      
1 47938U 21022G   24260.49489005  .00045673  00000+0  14464-2 0  9996
2 47938  97.4434 158.8466 0013210 158.6557 201.5238 15.32514982192593
2021-022H               
1 47939U 21022H   24260.52851682  .00133298  00000+0  22016-2 0  9998
2 47939  97.4488 166.6906 0013133 118.2183 242.0397 15.51681269193052
WILDTRACKCUBE-SIMBA     
1 47941U 21022K   24260.55278018  .00029949  00000+0  11734-2 0  9992
2 47941  97.4468 156.6720 0014443 171.9931 188.1540 15.25636620192374
HIBER-3                 
1 47942U 21022L   24260.21619661  .00078608  00000+0  18453-2 0  9990
2 47942  97.4426 161.9123 0012447 141.9908 218.2219 15.41671653192728
2021-022M               
1 47943U 21022M   24260.52791461  .00132454  00000+0  22256-2 0  9990
2 47943  97.4474 166.7610 0012913 120.2225 240.0307 15.51203872192924
ELSA-D                  
1 47944U 21022N   24260.29220970  .00033968  00000+0  11146-2 0  9993
2 47944  97.4494 160.3570 0012829 149.0248 211.1752 15.31447804192625
UNISAT-7                
1 47945U 21022P   24260.23429861  .00015585  00000+0  72457-3 0  9996
2 47945  97.4461 154.7279 0013888 172.5747 187.5696 15.19974238192124
2021-022Q               
1 47946U 21022Q   24260.50172714  .00033102  00000+0  11812-2 0  9991
2 47946  97.4476 159.0530 0013267 151.4884 208.7084 15.28722758192550
NANOSATC-BR2            
1 47950U 21022U   24260.53301847  .00093724  00000+0  20217-2 0  9995
2 47950  97.4409 162.5124 0012852 141.3540 218.8630 15.44132252192792
CUBESX-SIRIUS-HSE       
1 47951U 21022V   24260.51503408  .00044100  00000+0  14236-2 0  9999
2 47951  97.4466 158.9270 0013582 159.7879 200.3903 15.31904411192526
CUBESX-HSE              
1 47952U 21022W   24260.52538147  .00047043  00000+0  15078-2 0  9993
2 47952  97.4467 159.0497 0013632 158.5652 201.6163 15.32116957192537
2021-022X               
1 47953U 21022X   24260.47686464  .00024996  00000+0  10603-2 0  9995
2 47953  97.4445 154.9535 0014649 178.6082 181.5198 15.22999899192010
KSU-CUBESAT             
1 47954U 21022Y   24259.97477946  .00072248  00000+0  19988-2 0  9990
2 47954  97.4473 160.3223 0012897 151.4764 208.7188 15.36658138192289
CHALLENGE ONE           
1 47956U 21022AA  24259.67595983  .00057022  00000+0  17356-2 0  9991
2 47956  97.4469 158.6139 0013518 161.3682 198.8058 15.33717516192213
2021-022AC              
1 47958U 21022AC  24260.50293133  .00026838  00000+0  11012-2 0  9993
2 47958  97.4419 155.2011 0014719 176.3754 183.7592 15.24108032191124
GRBALPHA                
1 47959U 21022AD  24260.41934847  .00045293  00000+0  14500-2 0  9999
2 47959  97.4465 159.1067 0013476 159.1367 201.0427 15.32166326191342
ORBICRAFT-ZORKY         
1 47960U 21022AE  24260.46782068  .00054185  00000+0  15753-2 0  9993
2 47960  97.4509 160.8174 0012900 153.4608 206.7298 15.35189582192124
GLOBAL-9                
1 47971U 21023G   24259.88034866  .00051107  00000+0  11842-2 0  9992
2 47971  44.9878 209.0108 0009830 203.0502 156.9947 15.41681531196374
BCCSAT-1                
1 48041U 21022AK  24260.17658505  .02049940  34463-2  28652-2 0  9990
2 48041  97.4358 172.3773 0010932 145.5084 214.6909 16.06646542192156
BEESAT-8                
1 48085U 21022AP  24259.70016225  .00075514  00000+0  18014-2 0  9994
2 48085  97.4673 163.1489 0012550 143.6739 216.5362 15.41198209191771
2021-033E               
1 48252U 21033E   24260.52565984  .00098035  00000+0  11287-2 0  9993
2 48252  97.2528 336.1670 0006621 190.1470 169.9655 15.61637726189440
AII-BRAVO               
1 48270U 21034C   24260.13822536  .00011481  00000+0  10728-2 0  9999
2 48270  97.6479 319.1315 0002774 214.8418 145.2621 14.94300196183848
TYVAK-182A              
1 48271U 21034D   24259.87648363  .00011713  00000+0  10566-2 0  9991
2 48271  97.6467 320.1263 0000583 269.2175  90.8979 14.95685738183884
CSS (TIANHE)            
1 48274U 21035A   24260.27350979  .00033784  00000+0  34788-3 0  9999
2 48274  41.4674 247.7651 0002354 161.9496 198.1428 15.64134603193341
TYVAK-0130              
1 48606U 21041BF  24260.23158699  .00014985  00000+0  89741-3 0  9997
2 48606  53.0310  82.4156 0010897 356.3688   3.7222 15.11171026183146
HAIYANG-2D              
1 48621U 21043A   24260.56803694  .00000046  00000+0  11548-3 0  9997
2 48621  65.9958  94.6412 0011255 264.4933  95.4851 13.83375749168250
2021-050D               
1 48843U 21050D   24260.49547481  .00017485  00000+0  71612-3 0  9995
2 48843  97.3968 337.3433 0007985  15.1342 345.0133 15.24329484181711
